QIANFAN-57              
1 62787U 25016C   25199.88034419  .00000135  00000+0  18965-3 0  9997
2 62787  88.9867 118.3283 0017313  55.9869 304.2924 13.50958327 27377
QIANFAN-58              
1 62788U 25016D   25200.22189894  .00000118  00000+0  16425-3 0  9997
2 62788  88.9837 118.1707 0016061  50.7185 309.5388 13.50951876 27461
QIANFAN-59              
1 62789U 25016E   25199.86401438  .00000123  00000+0  17218-3 0  9993
2 62789  88.9860 118.2430 0017029  54.2690 306.0042 13.50956211 27419
QIANFAN-60              
1 62790U 25016F   25199.92972348  .00000120  00000+0  16765-3 0  9998
2 62790  88.9841 118.2438 0017466  52.0027 308.2698 13.50964539 27405
QIANFAN-61              
1 62791U 25016G   25199.94218457  .00000121  00000+0  16827-3 0  9995
2 62791  88.9909 118.3003 0016881  50.9885 309.2766 13.50954153 27429
QIANFAN-62              
1 62792U 25016H   25199.87204670  .00000096  00000+0  12937-3 0  9999
2 62792  88.9856 118.2551 0018301  51.2188 309.0595 13.50953746 27400
QIANFAN-63              
1 62793U 25016J   25199.88440447  .00000130  00000+0  18194-3 0  9995
2 62793  88.9862 118.1929 0018151  55.1781 305.1074 13.50959092 27444
QIANFAN-64              
1 62794U 25016K   25199.87617970  .00000124  00000+0  17354-3 0  9992
2 62794  88.9849 118.1936 0015902  50.1371 310.1176 13.50958775 27434
